[
  {
    "COMMENT": "GENERATED VIA SPACETRACK.ORG API",
    "ORIGINATOR": "18 SPCS",
    "NORAD_CAT_ID": "33105",
    "OBJECT_NAME": "JASON 2",
    "OBJECT_TYPE": "PAYLOAD",
    "CLASSIFICATION_TYPE": "U",
    "INTLDES": "08032A",
    "EPOCH": "2023-06-20 00:13:56",
    "EPOCH_MICROSECONDS": "878176",
    "MEAN_MOTION": "12.87660447",
    "ECCENTRICITY": "0.0008391",
    "INCLINATION": "66.0378",
    "RA_OF_ASC_NODE": "189.5106",
    "ARG_OF_PERICENTER": "269.7581",
    "MEAN_ANOMALY": "112.9769",
    "EPHEMERIS_TYPE": "0",
    "ELEMENT_SET_NO": "999",
    "REV_AT_EPOCH": "70304",
    "BSTAR": "0.000052581",
    "MEAN_MOTION_DOT": "-0.00000049",
    "MEAN_MOTION_DDOT": "0",
    "FILE": "3937562",
    "TLE_LINE0": "0 JASON 2",
    "TLE_LINE1": "1 33105U 08032A   23171.00968609 -.00000049  00000-0  52581-4 0  9996",
    "TLE_LINE2": "2 33105  66.0378 189.5106 0008391 269.7581 112.9769 12.87660447703047",
    "OBJECT_ID": "2008-032A",
    "OBJECT_NUMBER": "33105",
    "SEMIMAJOR_AXIS": "7688.960",
    "PERIOD": "111.831",
    "APOGEE": "1317.277",
    "PERIGEE": "1304.373",
    "DECAYED": "0"
  },
  {
    "COMMENT": "GENERATED VIA SPACETRACK.ORG API",
    "ORIGINATOR": "18 SPCS",
    "NORAD_CAT_ID": "33105",
    "OBJECT_NAME": "JASON 2",
    "OBJECT_TYPE": "PAYLOAD",
    "CLASSIFICATION_TYPE": "U",
    "INTLDES": "08032A",
    "EPOCH": "2023-06-20 07:38:07",
    "EPOCH_MICROSECONDS": "264032",
    "MEAN_MOTION": "12.87660447",
    "ECCENTRICITY": "0.0008393",
    "INCLINATION": "66.0378",
    "RA_OF_ASC_NODE": "188.862",
    "ARG_OF_PERICENTER": "269.7309",
    "MEAN_ANOMALY": "102.7234",
    "EPHEMERIS_TYPE": "0",
    "ELEMENT_SET_NO": "999",
    "REV_AT_EPOCH": "70299",
    "BSTAR": "0.000041911",
    "MEAN_MOTION_DOT": "-0.00000052",
    "MEAN_MOTION_DDOT": "0",
    "FILE": "3938135",
    "TLE_LINE0": "0 JASON 2",
    "TLE_LINE1": "1 33105U 08032A   23171.31813963 -.00000052  00000-0  41911-4 0  9991",
    "TLE_LINE2": "2 33105  66.0378 188.8620 0008393 269.7309 102.7234 12.87660447702997",
    "OBJECT_ID": "2008-032A",
    "OBJECT_NUMBER": "33105",
    "SEMIMAJOR_AXIS": "7688.960",
    "PERIOD": "111.831",
    "APOGEE": "1317.278",
    "PERIGEE": "1304.372",
    "DECAYED": "0"
  },
  {
    "COMMENT": "GENERATED VIA SPACETRACK.ORG API",
    "ORIGINATOR": "18 SPCS",
    "NORAD_CAT_ID": "33105",
    "OBJECT_NAME": "JASON 2",
    "OBJECT_TYPE": "PAYLOAD",
    "CLASSIFICATION_TYPE": "U",
    "INTLDES": "08032A",
    "EPOCH": "2023-06-21 08:17:13",
    "EPOCH_MICROSECONDS": "692768",
    "MEAN_MOTION": "12.87660471",
    "ECCENTRICITY": "0.0008397",
    "INCLINATION": "66.0377",
    "RA_OF_ASC_NODE": "186.7023",
    "ARG_OF_PERICENTER": "269.7054",
    "MEAN_ANOMALY": "183.7489",
    "EPHEMERIS_TYPE": "0",
    "ELEMENT_SET_NO": "999",
    "REV_AT_EPOCH": "70312",
    "BSTAR": "0.000037002",
    "MEAN_MOTION_DOT": "-0.00000053",
    "MEAN_MOTION_DDOT": "0",
    "FILE": "3939133",
    "TLE_LINE0": "0 JASON 2",
    "TLE_LINE1": "1 33105U 08032A   23172.34529737 -.00000053  00000-0  37002-4 0  9995",
    "TLE_LINE2": "2 33105  66.0377 186.7023 0008397 269.7054 183.7489 12.87660471703125",
    "OBJECT_ID": "2008-032A",
    "OBJECT_NUMBER": "33105",
    "SEMIMAJOR_AXIS": "7688.960",
    "PERIOD": "111.831",
    "APOGEE": "1317.281",
    "PERIGEE": "1304.369",
    "DECAYED": "0"
  },
  {
    "COMMENT": "GENERATED VIA SPACETRACK.ORG API",
    "ORIGINATOR": "18 SPCS",
    "NORAD_CAT_ID": "33105",
    "OBJECT_NAME": "JASON 2",
    "OBJECT_TYPE": "PAYLOAD",
    "CLASSIFICATION_TYPE": "U",
    "INTLDES": "08032A",
    "EPOCH": "2023-06-21 19:52:33",
    "EPOCH_MICROSECONDS": "457728",
    "MEAN_MOTION": "12.87660484",
    "ECCENTRICITY": "0.0008396",
    "INCLINATION": "66.0377",
    "RA_OF_ASC_NODE": "185.687",
    "ARG_OF_PERICENTER": "269.6924",
    "MEAN_ANOMALY": "261.9115",
    "EPHEMERIS_TYPE": "0",
    "ELEMENT_SET_NO": "999",
    "REV_AT_EPOCH": "70318",
    "BSTAR": "0.000038202",
    "MEAN_MOTION_DOT": "-0.00000053",
    "MEAN_MOTION_DDOT": "0",
    "FILE": "3940263",
    "TLE_LINE0": "0 JASON 2",
    "TLE_LINE1": "1 33105U 08032A   23172.82816502 -.00000053  00000-0  38202-4 0  9990",
    "TLE_LINE2": "2 33105  66.0377 185.6870 0008396 269.6924 261.9115 12.87660484703182",
    "OBJECT_ID": "2008-032A",
    "OBJECT_NUMBER": "33105",
    "SEMIMAJOR_AXIS": "7688.960",
    "PERIOD": "111.831",
    "APOGEE": "1317.281",
    "PERIGEE": "1304.369",
    "DECAYED": "0"
  },
  {
    "COMMENT": "GENERATED VIA SPACETRACK.ORG API",
    "ORIGINATOR": "18 SPCS",
    "NORAD_CAT_ID": "33105",
    "OBJECT_NAME": "JASON 2",
    "OBJECT_TYPE": "PAYLOAD",
    "CLASSIFICATION_TYPE": "U",
    "INTLDES": "08032A",
    "EPOCH": "2023-06-22 04:39:42",
    "EPOCH_MICROSECONDS": "321312",
    "MEAN_MOTION": "12.87660495",
    "ECCENTRICITY": "0.0008397",
    "INCLINATION": "66.0376",
    "RA_OF_ASC_NODE": "184.9172",
    "ARG_OF_PERICENTER": "269.6604",
    "MEAN_ANOMALY": "158.7445",
    "EPHEMERIS_TYPE": "0",
    "ELEMENT_SET_NO": "999",
    "REV_AT_EPOCH": "70332",
    "BSTAR": "0.000026841",
    "MEAN_MOTION_DOT": "-0.00000055",
    "MEAN_MOTION_DDOT": "0",
    "FILE": "3939415",
    "TLE_LINE0": "0 JASON 2",
    "TLE_LINE1": "1 33105U 08032A   23173.19423983 -.00000055  00000-0  26841-4 0  9996",
    "TLE_LINE2": "2 33105  66.0376 184.9172 0008397 269.6604 158.7445 12.87660495703321",
    "OBJECT_ID": "2008-032A",
    "OBJECT_NUMBER": "33105",
    "SEMIMAJOR_AXIS": "7688.960",
    "PERIOD": "111.831",
    "APOGEE": "1317.281",
    "PERIGEE": "1304.368",
    "DECAYED": "0"
  },
  {
    "COMMENT": "GENERATED VIA SPACETRACK.ORG API",
    "ORIGINATOR": "18 SPCS",
    "NORAD_CAT_ID": "33105",
    "OBJECT_NAME": "JASON 2",
    "OBJECT_TYPE": "PAYLOAD",
    "CLASSIFICATION_TYPE": "U",
    "INTLDES": "08032A",
    "EPOCH": "2023-06-24 09:02:22",
    "EPOCH_MICROSECONDS": "342272",
    "MEAN_MOTION": "12.87660562",
    "ECCENTRICITY": "0.0008397",
    "INCLINATION": "66.0374",
    "RA_OF_ASC_NODE": "180.3283",
    "ARG_OF_PERICENTER": "269.6058",
    "MEAN_ANOMALY": "194.5222",
    "EPHEMERIS_TYPE": "0",
    "ELEMENT_SET_NO": "999",
    "REV_AT_EPOCH": "70360",
    "BSTAR": "0.000033004",
    "MEAN_MOTION_DOT": "-0.00000054",
    "MEAN_MOTION_DDOT": "0",
    "FILE": "3941462",
    "TLE_LINE0": "0 JASON 2",
    "TLE_LINE1": "1 33105U 08032A   23175.37664748 -.00000054  00000-0  33004-4 0  9992",
    "TLE_LINE2": "2 33105  66.0374 180.3283 0008397 269.6058 194.5222 12.87660562703602",
    "OBJECT_ID": "2008-032A",
    "OBJECT_NUMBER": "33105",
    "SEMIMAJOR_AXIS": "7688.960",
    "PERIOD": "111.831",
    "APOGEE": "1317.281",
    "PERIGEE": "1304.368",
    "DECAYED": "0"
  },
  {
    "COMMENT": "GENERATED VIA SPACETRACK.ORG API",
    "ORIGINATOR": "18 SPCS",
    "NORAD_CAT_ID": "33105",
    "OBJECT_NAME": "JASON 2",
    "OBJECT_TYPE": "PAYLOAD",
    "CLASSIFICATION_TYPE": "U",
    "INTLDES": "08032A",
    "EPOCH": "2023-06-26 09:44:03",
    "EPOCH_MICROSECONDS": "751008",
    "MEAN_MOTION": "12.87660704",
    "ECCENTRICITY": "0.0008385",
    "INCLINATION": "66.0375",
    "RA_OF_ASC_NODE": "176.0621",
    "ARG_OF_PERICENTER": "269.5541",
    "MEAN_ANOMALY": "239.009",
    "EPHEMERIS_TYPE": "0",
    "ELEMENT_SET_NO": "999",
    "REV_AT_EPOCH": "70386",
    "BSTAR": "0.00015636",
    "MEAN_MOTION_DOT": "-0.00000023",
    "MEAN_MOTION_DDOT": "0",
    "FILE": "3943182",
    "TLE_LINE0": "0 JASON 2",
    "TLE_LINE1": "1 33105U 08032A   23177.40559897 -.00000023  00000-0  15636-3 0  9992",
    "TLE_LINE2": "2 33105  66.0375 176.0621 0008385 269.5541 239.0090 12.87660704703868",
    "OBJECT_ID": "2008-032A",
    "OBJECT_NUMBER": "33105",
    "SEMIMAJOR_AXIS": "7688.959",
    "PERIOD": "111.831",
    "APOGEE": "1317.271",
    "PERIGEE": "1304.377",
    "DECAYED": "0"
  },
  {
    "COMMENT": "GENERATED VIA SPACETRACK.ORG API",
    "ORIGINATOR": "18 SPCS",
    "NORAD_CAT_ID": "33105",
    "OBJECT_NAME": "JASON 2",
    "OBJECT_TYPE": "PAYLOAD",
    "CLASSIFICATION_TYPE": "U",
    "INTLDES": "08032A",
    "EPOCH": "2023-06-28 09:59:16",
    "EPOCH_MICROSECONDS": "547136",
    "MEAN_MOTION": "12.87660804",
    "ECCENTRICITY": "0.0008401",
    "INCLINATION": "66.0377",
    "RA_OF_ASC_NODE": "171.8346",
    "ARG_OF_PERICENTER": "269.5203",
    "MEAN_ANOMALY": "198.2547",
    "EPHEMERIS_TYPE": "0",
    "ELEMENT_SET_NO": "999",
    "REV_AT_EPOCH": "70412",
    "BSTAR": "0.00013369",
    "MEAN_MOTION_DOT": "-0.00000028",
    "MEAN_MOTION_DDOT": "0",
    "FILE": "3944857",
    "TLE_LINE0": "0 JASON 2",
    "TLE_LINE1": "1 33105U 08032A   23179.41616374 -.00000028  00000-0  13369-3 0  9995",
    "TLE_LINE2": "2 33105  66.0377 171.8346 0008401 269.5203 198.2547 12.87660804704125",
    "OBJECT_ID": "2008-032A",
    "OBJECT_NUMBER": "33105",
    "SEMIMAJOR_AXIS": "7688.959",
    "PERIOD": "111.831",
    "APOGEE": "1317.283",
    "PERIGEE": "1304.364",
    "DECAYED": "0"
  },
  {
    "COMMENT": "GENERATED VIA SPACETRACK.ORG API",
    "ORIGINATOR": "18 SPCS",
    "NORAD_CAT_ID": "33105",
    "OBJECT_NAME": "JASON 2",
    "OBJECT_TYPE": "PAYLOAD",
    "CLASSIFICATION_TYPE": "U",
    "INTLDES": "08032A",
    "EPOCH": "2023-07-01 01:07:12",
    "EPOCH_MICROSECONDS": "948096",
    "MEAN_MOTION": "12.87660947",
    "ECCENTRICITY": "0.0008388",
    "INCLINATION": "66.0381",
    "RA_OF_ASC_NODE": "166.3036",
    "ARG_OF_PERICENTER": "269.4713",
    "MEAN_ANOMALY": "151.0567",
    "EPHEMERIS_TYPE": "0",
    "ELEMENT_SET_NO": "999",
    "REV_AT_EPOCH": "70446",
    "BSTAR": "0.000088026",
    "MEAN_MOTION_DOT": "-0.0000004",
    "MEAN_MOTION_DDOT": "0",
    "FILE": "3946373",
    "TLE_LINE0": "0 JASON 2",
    "TLE_LINE1": "1 33105U 08032A   23182.04667764 -.00000040  00000-0  88026-4 0  9994",
    "TLE_LINE2": "2 33105  66.0381 166.3036 0008388 269.4713 151.0567 12.87660947704468",
    "OBJECT_ID": "2008-032A",
    "OBJECT_NUMBER": "33105",
    "SEMIMAJOR_AXIS": "7688.958",
    "PERIOD": "111.831",
    "APOGEE": "1317.273",
    "PERIGEE": "1304.374",
    "DECAYED": "0"
  }
]